[{"OBJECT_NAME":"EXO-0","OBJECT_ID":"2023-174DK","EPOCH":"2026-03-09T17:03:04.419648","MEAN_MOTION":15.32821991,"ECCENTRICITY":0.00098779,"INCLINATION":97.3864,"RA_OF_ASC_NODE":148.9039,"ARG_OF_PERICENTER":157.1125,"MEAN_ANOMALY":203.0559,"EPHEMERIS_TYPE":0,"CLASSIFICATION_TYPE":"U","NORAD_CAT_ID":59175,"ELEMENT_SET_NO":999,"REV_AT_EPOCH":12979,"BSTAR":0.00036716083,"MEAN_MOTION_DOT":0.00011582,"MEAN_MOTION_DDOT":0},{"OBJECT_NAME":"STARLINK-33551","OBJECT_ID":"2024-220Y","EPOCH":"2026-03-09T09:09:20.927808","MEAN_MOTION":15.27600504,"ECCENTRICITY":0.00022463,"INCLINATION":43.0034,"RA_OF_ASC_NODE":207.3225,"ARG_OF_PERICENTER":277.8737,"MEAN_ANOMALY":82.186,"EPHEMERIS_TYPE":0,"CLASSIFICATION_TYPE":"U","NORAD_CAT_ID":62110,"ELEMENT_SET_NO":999,"REV_AT_EPOCH":7314,"BSTAR":0.0015658234,"MEAN_MOTION_DOT":0.00043106,"MEAN_MOTION_DDOT":0}]
